{
 "type": "FeatureCollection",
 "features": [
  {
   "type": "Feature",
   "geometry": {
    "type": "Point",
    "coordinates": [
     137.09399444,
     37.47219444,
     11.24
    ]
   },
   "properties": {
    "順番": 1,
    "ファイル名": "IMG_1508.JPG",
    "撮影日時": "2026:09:23 06:56:04",
    "標高m": 11.24,
    "種別": "写真"
   }
  },
  {
   "type": "Feature",
   "geometry": {
    "type": "Point",
    "coordinates": [
     137.094375,
     37.47257222,
     15.32
    ]
   },
   "properties": {
    "順番": 2,
    "ファイル名": "IMG_1509.JPG",
    "撮影日時": "2026:09:23 06:56:53",
    "標高m": 15.32,
    "種別": "写真"
   }
  },
  {
   "type": "Feature",
   "geometry": {
    "type": "Point",
    "coordinates": [
     137.09458889,
     37.47247222,
     16.7
    ]
   },
   "properties": {
    "順番": 3,
    "ファイル名": "IMG_1510.JPG",
    "撮影日時": "2026:09:23 06:57:17",
    "標高m": 16.7,
    "種別": "写真"
   }
  },
  {
   "type": "Feature",
   "geometry": {
    "type": "Point",
    "coordinates": [
     137.09649722,
     37.47293889,
     36.91
    ]
   },
   "properties": {
    "順番": 4,
    "ファイル名": "IMG_1511.JPG",
    "撮影日時": "2026:09:23 07:00:35",
    "標高m": 36.91,
    "種別": "写真"
   }
  },
  {
   "type": "Feature",
   "geometry": {
    "type": "Point",
    "coordinates": [
     137.09649722,
     37.47299444,
     37.66
    ]
   },
   "properties": {
    "順番": 5,
    "ファイル名": "IMG_1512.JPG",
    "撮影日時": "2026:09:23 07:00:50",
    "標高m": 37.66,
    "種別": "写真"
   }
  },
  {
   "type": "Feature",
   "geometry": {
    "type": "Point",
    "coordinates": [
     137.0967,
     37.4733,
     37.47
    ]
   },
   "properties": {
    "順番": 6,
    "ファイル名": "IMG_1513.MOV",
    "撮影日時": "2026:09:23 07:01:44",
    "標高m": 37.47,
    "種別": "動画"
   }
  },
  {
   "type": "Feature",
   "geometry": {
    "type": "Point",
    "coordinates": [
     137.09690833,
     37.47326389,
     43.98
    ]
   },
   "properties": {
    "順番": 7,
    "ファイル名": "IMG_1514.JPG",
    "撮影日時": "2026:09:23 07:02:38",
    "標高m": 43.98,
    "種別": "写真"
   }
  },
  {
   "type": "Feature",
   "geometry": {
    "type": "Point",
    "coordinates": [
     137.09774722,
     37.47343056,
     43.04
    ]
   },
   "properties": {
    "順番": 8,
    "ファイル名": "IMG_1515.JPG",
    "撮影日時": "2026:09:23 07:03:11",
    "標高m": 43.04,
    "種別": "写真"
   }
  },
  {
   "type": "Feature",
   "geometry": {
    "type": "Point",
    "coordinates": [
     137.097825,
     37.47342222,
     48.94
    ]
   },
   "properties": {
    "順番": 9,
    "ファイル名": "IMG_1516.JPG",
    "撮影日時": "2026:09:23 07:03:18",
    "標高m": 48.94,
    "種別": "写真"
   }
  },
  {
   "type": "Feature",
   "geometry": {
    "type": "Point",
    "coordinates": [
     137.09783889,
     37.47343889,
     48.39
    ]
   },
   "properties": {
    "順番": 10,
    "ファイル名": "IMG_1517.JPG",
    "撮影日時": "2026:09:23 07:03:27",
    "標高m": 48.39,
    "種別": "写真"
   }
  },
  {
   "type": "Feature",
   "geometry": {
    "type": "Point",
    "coordinates": [
     137.09821944,
     37.47306389,
     57.12
    ]
   },
   "properties": {
    "順番": 11,
    "ファイル名": "IMG_1518.JPG",
    "撮影日時": "2026:09:23 07:04:37",
    "標高m": 57.12,
    "種別": "写真"
   }
  },
  {
   "type": "Feature",
   "geometry": {
    "type": "Point",
    "coordinates": [
     137.09951667,
     37.47354167,
     73.99
    ]
   },
   "properties": {
    "順番": 12,
    "ファイル名": "IMG_1519.JPG",
    "撮影日時": "2026:09:23 07:06:44",
    "標高m": 73.99,
    "種別": "写真"
   }
  },
  {
   "type": "Feature",
   "geometry": {
    "type": "Point",
    "coordinates": [
     137.09953333,
     37.47344167,
     75.53
    ]
   },
   "properties": {
    "順番": 13,
    "ファイル名": "IMG_1520.JPG",
    "撮影日時": "2026:09:23 07:06:52",
    "標高m": 75.53,
    "種別": "写真"
   }
  },
  {
   "type": "Feature",
   "geometry": {
    "type": "Point",
    "coordinates": [
     137.09945556,
     37.47324444,
     74.29
    ]
   },
   "properties": {
    "順番": 14,
    "ファイル名": "IMG_1521.JPG",
    "撮影日時": "2026:09:23 07:07:20",
    "標高m": 74.29,
    "種別": "写真"
   }
  },
  {
   "type": "Feature",
   "geometry": {
    "type": "Point",
    "coordinates": [
     137.09944167,
     37.47323611,
     74.79
    ]
   },
   "properties": {
    "順番": 15,
    "ファイル名": "IMG_1522.JPG",
    "撮影日時": "2026:09:23 07:07:25",
    "標高m": 74.79,
    "種別": "写真"
   }
  },
  {
   "type": "Feature",
   "geometry": {
    "type": "Point",
    "coordinates": [
     137.09950278,
     37.47318889,
     75.47
    ]
   },
   "properties": {
    "順番": 16,
    "ファイル名": "IMG_1523.JPG",
    "撮影日時": "2026:09:23 07:07:39",
    "標高m": 75.47,
    "種別": "写真"
   }
  },
  {
   "type": "Feature",
   "geometry": {
    "type": "Point",
    "coordinates": [
     137.099625,
     37.47321389,
     76.24
    ]
   },
   "properties": {
    "順番": 17,
    "ファイル名": "IMG_1524.JPG",
    "撮影日時": "2026:09:23 07:07:56",
    "標高m": 76.24,
    "種別": "写真"
   }
  },
  {
   "type": "Feature",
   "geometry": {
    "type": "Point",
    "coordinates": [
     137.099625,
     37.47321389,
     76.14
    ]
   },
   "properties": {
    "順番": 18,
    "ファイル名": "IMG_1525.JPG",
    "撮影日時": "2026:09:23 07:08:06",
    "標高m": 76.14,
    "種別": "写真"
   }
  },
  {
   "type": "Feature",
   "geometry": {
    "type": "Point",
    "coordinates": [
     137.09959444,
     37.47319722,
     75.31
    ]
   },
   "properties": {
    "順番": 19,
    "ファイル名": "IMG_1526.JPG",
    "撮影日時": "2026:09:23 07:08:15",
    "標高m": 75.31,
    "種別": "写真"
   }
  },
  {
   "type": "Feature",
   "geometry": {
    "type": "Point",
    "coordinates": [
     137.09976111,
     37.47329722,
     76.66
    ]
   },
   "properties": {
    "順番": 20,
    "ファイル名": "IMG_1527.JPG",
    "撮影日時": "2026:09:23 07:08:40",
    "標高m": 76.66,
    "種別": "写真"
   }
  },
  {
   "type": "Feature",
   "geometry": {
    "type": "Point",
    "coordinates": [
     137.09983889,
     37.47335,
     77.84
    ]
   },
   "properties": {
    "順番": 21,
    "ファイル名": "IMG_1528.JPG",
    "撮影日時": "2026:09:23 07:08:50",
    "標高m": 77.84,
    "種別": "写真"
   }
  },
  {
   "type": "Feature",
   "geometry": {
    "type": "Point",
    "coordinates": [
     137.10014444,
     37.47343611,
     79.4
    ]
   },
   "properties": {
    "順番": 22,
    "ファイル名": "IMG_1529.JPG",
    "撮影日時": "2026:09:23 07:09:25",
    "標高m": 79.4,
    "種別": "写真"
   }
  },
  {
   "type": "Feature",
   "geometry": {
    "type": "Point",
    "coordinates": [
     137.10014444,
     37.47337778,
     79.42
    ]
   },
   "properties": {
    "順番": 23,
    "ファイル名": "IMG_1530.JPG",
    "撮影日時": "2026:09:23 07:09:36",
    "標高m": 79.42,
    "種別": "写真"
   }
  },
  {
   "type": "Feature",
   "geometry": {
    "type": "Point",
    "coordinates": [
     137.10015833,
     37.47327778,
     79.15
    ]
   },
   "properties": {
    "順番": 24,
    "ファイル名": "IMG_1531.JPG",
    "撮影日時": "2026:09:23 07:09:54",
    "標高m": 79.15,
    "種別": "写真"
   }
  },
  {
   "type": "Feature",
   "geometry": {
    "type": "Point",
    "coordinates": [
     137.10018889,
     37.47321667,
     81.55
    ]
   },
   "properties": {
    "順番": 25,
    "ファイル名": "IMG_1532.JPG",
    "撮影日時": "2026:09:23 07:10:21",
    "標高m": 81.55,
    "種別": "写真"
   }
  },
  {
   "type": "Feature",
   "geometry": {
    "type": "Point",
    "coordinates": [
     137.1002,
     37.4732,
     81.24
    ]
   },
   "properties": {
    "順番": 26,
    "ファイル名": "IMG_1533.MOV",
    "撮影日時": "2026:09:23 07:10:27",
    "標高m": 81.24,
    "種別": "動画"
   }
  },
  {
   "type": "Feature",
   "geometry": {
    "type": "Point",
    "coordinates": [
     137.10066111,
     37.47286667,
     89.22
    ]
   },
   "properties": {
    "順番": 27,
    "ファイル名": "IMG_1534.JPG",
    "撮影日時": "2026:09:23 07:12:22",
    "標高m": 89.22,
    "種別": "写真"
   }
  },
  {
   "type": "Feature",
   "geometry": {
    "type": "Point",
    "coordinates": [
     137.10083056,
     37.47280833,
     92.16
    ]
   },
   "properties": {
    "順番": 28,
    "ファイル名": "IMG_1535.JPG",
    "撮影日時": "2026:09:23 07:12:39",
    "標高m": 92.16,
    "種別": "写真"
   }
  },
  {
   "type": "Feature",
   "geometry": {
    "type": "Point",
    "coordinates": [
     137.10115,
     37.47267222,
     96.15
    ]
   },
   "properties": {
    "順番": 29,
    "ファイル名": "IMG_1536.JPG",
    "撮影日時": "2026:09:23 07:13:07",
    "標高m": 96.15,
    "種別": "写真"
   }
  },
  {
   "type": "Feature",
   "geometry": {
    "type": "Point",
    "coordinates": [
     137.10115,
     37.47267222,
     96.27
    ]
   },
   "properties": {
    "順番": 30,
    "ファイル名": "IMG_1537.JPG",
    "撮影日時": "2026:09:23 07:13:10",
    "標高m": 96.27,
    "種別": "写真"
   }
  },
  {
   "type": "Feature",
   "geometry": {
    "type": "Point",
    "coordinates": [
     137.10115,
     37.47267222,
     96.61
    ]
   },
   "properties": {
    "順番": 31,
    "ファイル名": "IMG_1538.JPG",
    "撮影日時": "2026:09:23 07:13:13",
    "標高m": 96.61,
    "種別": "写真"
   }
  },
  {
   "type": "Feature",
   "geometry": {
    "type": "Point",
    "coordinates": [
     137.10115,
     37.472675,
     96.94
    ]
   },
   "properties": {
    "順番": 32,
    "ファイル名": "IMG_1539.JPG",
    "撮影日時": "2026:09:23 07:13:17",
    "標高m": 96.94,
    "種別": "写真"
   }
  },
  {
   "type": "Feature",
   "geometry": {
    "type": "Point",
    "coordinates": [
     137.10115,
     37.47267222,
     96.78
    ]
   },
   "properties": {
    "順番": 33,
    "ファイル名": "IMG_1540.JPG",
    "撮影日時": "2026:09:23 07:13:22",
    "標高m": 96.78,
    "種別": "写真"
   }
  },
  {
   "type": "Feature",
   "geometry": {
    "type": "Point",
    "coordinates": [
     137.10141111,
     37.47256944,
     97.76
    ]
   },
   "properties": {
    "順番": 34,
    "ファイル名": "IMG_1541.JPG",
    "撮影日時": "2026:09:23 07:14:05",
    "標高m": 97.76,
    "種別": "写真"
   }
  },
  {
   "type": "Feature",
   "geometry": {
    "type": "Point",
    "coordinates": [
     137.10151667,
     37.47250556,
     100.8
    ]
   },
   "properties": {
    "順番": 35,
    "ファイル名": "IMG_1542.JPG",
    "撮影日時": "2026:09:23 07:14:21",
    "標高m": 100.8,
    "種別": "写真"
   }
  },
  {
   "type": "Feature",
   "geometry": {
    "type": "Point",
    "coordinates": [
     137.10188333,
     37.472325,
     107.62
    ]
   },
   "properties": {
    "順番": 36,
    "ファイル名": "IMG_1543.JPG",
    "撮影日時": "2026:09:23 07:15:00",
    "標高m": 107.62,
    "種別": "写真"
   }
  },
  {
   "type": "Feature",
   "geometry": {
    "type": "Point",
    "coordinates": [
     137.10186667,
     37.47233056,
     108.29
    ]
   },
   "properties": {
    "順番": 37,
    "ファイル名": "IMG_1544.JPG",
    "撮影日時": "2026:09:23 07:15:06",
    "標高m": 108.29,
    "種別": "写真"
   }
  },
  {
   "type": "Feature",
   "geometry": {
    "type": "Point",
    "coordinates": [
     137.1012,
     37.4727,
     104.62
    ]
   },
   "properties": {
    "順番": 38,
    "ファイル名": "IMG_1545.MOV",
    "撮影日時": "2026:09:23 07:16:01",
    "標高m": 104.62,
    "種別": "動画"
   }
  },
  {
   "type": "Feature",
   "geometry": {
    "type": "Point",
    "coordinates": [
     137.100525,
     37.47282222,
     89.57
    ]
   },
   "properties": {
    "順番": 39,
    "ファイル名": "IMG_1546.JPG",
    "撮影日時": "2026:09:23 07:16:56",
    "標高m": 89.57,
    "種別": "写真"
   }
  },
  {
   "type": "Feature",
   "geometry": {
    "type": "Point",
    "coordinates": [
     137.10015833,
     37.47324444,
     80.68
    ]
   },
   "properties": {
    "順番": 40,
    "ファイル名": "IMG_1547.JPG",
    "撮影日時": "2026:09:23 07:18:21",
    "標高m": 80.68,
    "種別": "写真"
   }
  },
  {
   "type": "Feature",
   "geometry": {
    "type": "Point",
    "coordinates": [
     137.09996111,
     37.47345556,
     78.58
    ]
   },
   "properties": {
    "順番": 41,
    "ファイル名": "IMG_1548.JPG",
    "撮影日時": "2026:09:23 07:18:53",
    "標高m": 78.58,
    "種別": "写真"
   }
  },
  {
   "type": "Feature",
   "geometry": {
    "type": "Point",
    "coordinates": [
     137.09996111,
     37.47344722,
     78.82
    ]
   },
   "properties": {
    "順番": 42,
    "ファイル名": "IMG_1549.JPG",
    "撮影日時": "2026:09:23 07:18:56",
    "標高m": 78.82,
    "種別": "写真"
   }
  },
  {
   "type": "Feature",
   "geometry": {
    "type": "Point",
    "coordinates": [
     137.09976111,
     37.47330278,
     76.27
    ]
   },
   "properties": {
    "順番": 43,
    "ファイル名": "IMG_1550.JPG",
    "撮影日時": "2026:09:23 07:19:20",
    "標高m": 76.27,
    "種別": "写真"
   }
  },
  {
   "type": "Feature",
   "geometry": {
    "type": "Point",
    "coordinates": [
     137.09976111,
     37.47330278,
     76.77
    ]
   },
   "properties": {
    "順番": 44,
    "ファイル名": "IMG_1551.JPG",
    "撮影日時": "2026:09:23 07:19:25",
    "標高m": 76.77,
    "種別": "写真"
   }
  },
  {
   "type": "Feature",
   "geometry": {
    "type": "Point",
    "coordinates": [
     137.09948611,
     37.47319444,
     74.37
    ]
   },
   "properties": {
    "順番": 45,
    "ファイル名": "IMG_1552.JPG",
    "撮影日時": "2026:09:23 07:19:51",
    "標高m": 74.37,
    "種別": "写真"
   }
  },
  {
   "type": "Feature",
   "geometry": {
    "type": "Point",
    "coordinates": [
     137.09963889,
     37.47388056,
     75.93
    ]
   },
   "properties": {
    "順番": 46,
    "ファイル名": "IMG_1553.JPG",
    "撮影日時": "2026:09:23 07:21:00",
    "標高m": 75.93,
    "種別": "写真"
   }
  },
  {
   "type": "Feature",
   "geometry": {
    "type": "Point",
    "coordinates": [
     137.09873889,
     37.47343056,
     70.31
    ]
   },
   "properties": {
    "順番": 47,
    "ファイル名": "IMG_1554.JPG",
    "撮影日時": "2026:09:23 07:22:32",
    "標高m": 70.31,
    "種別": "写真"
   }
  },
  {
   "type": "Feature",
   "geometry": {
    "type": "Point",
    "coordinates": [
     137.09873889,
     37.47342778,
     69.5
    ]
   },
   "properties": {
    "順番": 48,
    "ファイル名": "IMG_1555.JPG",
    "撮影日時": "2026:09:23 07:22:39",
    "標高m": 69.5,
    "種別": "写真"
   }
  },
  {
   "type": "Feature",
   "geometry": {
    "type": "Point",
    "coordinates": [
     137.098725,
     37.47343056,
     69.29
    ]
   },
   "properties": {
    "順番": 49,
    "ファイル名": "IMG_1556.JPG",
    "撮影日時": "2026:09:23 07:22:44",
    "標高m": 69.29,
    "種別": "写真"
   }
  },
  {
   "type": "Feature",
   "geometry": {
    "type": "Point",
    "coordinates": [
     137.09870833,
     37.47341944,
     68.8
    ]
   },
   "properties": {
    "順番": 50,
    "ファイル名": "IMG_1557.JPG",
    "撮影日時": "2026:09:23 07:22:53",
    "標高m": 68.8,
    "種別": "写真"
   }
  },
  {
   "type": "Feature",
   "geometry": {
    "type": "Point",
    "coordinates": [
     137.09648056,
     37.47285,
     35.95
    ]
   },
   "properties": {
    "順番": 51,
    "ファイル名": "IMG_1558.JPG",
    "撮影日時": "2026:09:23 07:26:25",
    "標高m": 35.95,
    "種別": "写真"
   }
  },
  {
   "type": "Feature",
   "geometry": {
    "type": "Point",
    "coordinates": [
     137.09648056,
     37.47285,
     35.89
    ]
   },
   "properties": {
    "順番": 52,
    "ファイル名": "IMG_1559.JPG",
    "撮影日時": "2026:09:23 07:26:29",
    "標高m": 35.89,
    "種別": "写真"
   }
  },
  {
   "type": "Feature",
   "geometry": {
    "type": "Point",
    "coordinates": [
     137.09646667,
     37.47282222,
     35.16
    ]
   },
   "properties": {
    "順番": 53,
    "ファイル名": "IMG_1560.JPG",
    "撮影日時": "2026:09:23 07:26:41",
    "標高m": 35.16,
    "種別": "写真"
   }
  },
  {
   "type": "Feature",
   "geometry": {
    "type": "Point",
    "coordinates": [
     137.0965,
     37.4728,
     35.46
    ]
   },
   "properties": {
    "順番": 54,
    "ファイル名": "IMG_1561.MOV",
    "撮影日時": "2026:09:23 07:26:59",
    "標高m": 35.46,
    "種別": "動画"
   }
  },
  {
   "type": "Feature",
   "geometry": {
    "type": "Point",
    "coordinates": [
     137.09599167,
     37.47246389,
     34.8
    ]
   },
   "properties": {
    "順番": 55,
    "ファイル名": "IMG_1562.JPG",
    "撮影日時": "2026:09:23 07:27:57",
    "標高m": 34.8,
    "種別": "写真"
   }
  },
  {
   "type": "Feature",
   "geometry": {
    "type": "Point",
    "coordinates": [
     137.09599167,
     37.47246111,
     34.52
    ]
   },
   "properties": {
    "順番": 56,
    "ファイル名": "IMG_1563.JPG",
    "撮影日時": "2026:09:23 07:28:01",
    "標高m": 34.52,
    "種別": "写真"
   }
  },
  {
   "type": "Feature",
   "geometry": {
    "type": "Point",
    "coordinates": [
     137.09591667,
     37.47248611,
     32.94
    ]
   },
   "properties": {
    "順番": 57,
    "ファイル名": "IMG_1564.JPG",
    "撮影日時": "2026:09:23 07:28:58",
    "標高m": 32.94,
    "種別": "写真"
   }
  },
  {
   "type": "Feature",
   "geometry": {
    "type": "Point",
    "coordinates": [
     137.09587222,
     37.47243611,
     33.82
    ]
   },
   "properties": {
    "順番": 58,
    "ファイル名": "IMG_1565.JPG",
    "撮影日時": "2026:09:23 07:29:02",
    "標高m": 33.82,
    "種別": "写真"
   }
  },
  {
   "type": "Feature",
   "geometry": {
    "type": "Point",
    "coordinates": [
     137.09571944,
     37.47229444,
     32.3
    ]
   },
   "properties": {
    "順番": 59,
    "ファイル名": "IMG_1566.JPG",
    "撮影日時": "2026:09:23 07:29:29",
    "標高m": 32.3,
    "種別": "写真"
   }
  },
  {
   "type": "Feature",
   "geometry": {
    "type": "Point",
    "coordinates": [
     137.09567222,
     37.47227222,
     33.1
    ]
   },
   "properties": {
    "順番": 60,
    "ファイル名": "IMG_1567.JPG",
    "撮影日時": "2026:09:23 07:29:37",
    "標高m": 33.1,
    "種別": "写真"
   }
  },
  {
   "type": "Feature",
   "geometry": {
    "type": "Point",
    "coordinates": [
     137.09565833,
     37.47226389,
     32.89
    ]
   },
   "properties": {
    "順番": 61,
    "ファイル名": "IMG_1568.JPG",
    "撮影日時": "2026:09:23 07:29:52",
    "標高m": 32.89,
    "種別": "写真"
   }
  },
  {
   "type": "Feature",
   "geometry": {
    "type": "Point",
    "coordinates": [
     137.09559722,
     37.47223333,
     33.81
    ]
   },
   "properties": {
    "順番": 62,
    "ファイル名": "IMG_1569.JPG",
    "撮影日時": "2026:09:23 07:30:05",
    "標高m": 33.81,
    "種別": "写真"
   }
  },
  {
   "type": "Feature",
   "geometry": {
    "type": "Point",
    "coordinates": [
     137.0941,
     37.47056389,
     54.67
    ]
   },
   "properties": {
    "順番": 63,
    "ファイル名": "IMG_1570.JPG",
    "撮影日時": "2026:09:23 07:35:18",
    "標高m": 54.67,
    "種別": "写真"
   }
  },
  {
   "type": "Feature",
   "geometry": {
    "type": "Point",
    "coordinates": [
     137.09512222,
     37.47084722,
     71.1
    ]
   },
   "properties": {
    "順番": 64,
    "ファイル名": "IMG_1571.JPG",
    "撮影日時": "2026:09:23 07:37:09",
    "標高m": 71.1,
    "種別": "写真"
   }
  },
  {
   "type": "Feature",
   "geometry": {
    "type": "Point",
    "coordinates": [
     137.09512222,
     37.47084444,
     70.44
    ]
   },
   "properties": {
    "順番": 65,
    "ファイル名": "IMG_1572.JPG",
    "撮影日時": "2026:09:23 07:37:12",
    "標高m": 70.44,
    "種別": "写真"
   }
  },
  {
   "type": "Feature",
   "geometry": {
    "type": "Point",
    "coordinates": [
     137.09512222,
     37.47084444,
     70.18
    ]
   },
   "properties": {
    "順番": 66,
    "ファイル名": "IMG_1573.JPG",
    "撮影日時": "2026:09:23 07:37:16",
    "標高m": 70.18,
    "種別": "写真"
   }
  },
  {
   "type": "Feature",
   "geometry": {
    "type": "Point",
    "coordinates": [
     137.09606944,
     37.46987222,
     92.64
    ]
   },
   "properties": {
    "順番": 67,
    "ファイル名": "IMG_1574.JPG",
    "撮影日時": "2026:09:23 07:40:05",
    "標高m": 92.64,
    "種別": "写真"
   }
  },
  {
   "type": "Feature",
   "geometry": {
    "type": "Point",
    "coordinates": [
     137.09606944,
     37.46987222,
     92.75
    ]
   },
   "properties": {
    "順番": 68,
    "ファイル名": "IMG_1575.JPG",
    "撮影日時": "2026:09:23 07:40:08",
    "標高m": 92.75,
    "種別": "写真"
   }
  },
  {
   "type": "Feature",
   "geometry": {
    "type": "Point",
    "coordinates": [
     137.09548889,
     37.46986111,
     85.63
    ]
   },
   "properties": {
    "順番": 69,
    "ファイル名": "IMG_1576.JPG",
    "撮影日時": "2026:09:23 07:41:02",
    "標高m": 85.63,
    "種別": "写真"
   }
  },
  {
   "type": "Feature",
   "geometry": {
    "type": "Point",
    "coordinates": [
     137.09545833,
     37.46988333,
     89.67
    ]
   },
   "properties": {
    "順番": 70,
    "ファイル名": "IMG_1577.JPG",
    "撮影日時": "2026:09:23 07:41:07",
    "標高m": 89.67,
    "種別": "写真"
   }
  },
  {
   "type": "Feature",
   "geometry": {
    "type": "Point",
    "coordinates": [
     137.09535278,
     37.469975,
     88.84
    ]
   },
   "properties": {
    "順番": 71,
    "ファイル名": "IMG_1578.JPG",
    "撮影日時": "2026:09:23 07:41:35",
    "標高m": 88.84,
    "種別": "写真"
   }
  },
  {
   "type": "Feature",
   "geometry": {
    "type": "Point",
    "coordinates": [
     137.09526111,
     37.47018056,
     90.4
    ]
   },
   "properties": {
    "順番": 72,
    "ファイル名": "IMG_1579.JPG",
    "撮影日時": "2026:09:23 07:41:53",
    "標高m": 90.4,
    "種別": "写真"
   }
  },
  {
   "type": "Feature",
   "geometry": {
    "type": "Point",
    "coordinates": [
     137.09532222,
     37.47021111,
     88.62
    ]
   },
   "properties": {
    "順番": 73,
    "ファイル名": "IMG_1580.JPG",
    "撮影日時": "2026:09:23 07:42:02",
    "標高m": 88.62,
    "種別": "写真"
   }
  },
  {
   "type": "Feature",
   "geometry": {
    "type": "Point",
    "coordinates": [
     137.09535278,
     37.47001389,
     91.52
    ]
   },
   "properties": {
    "順番": 74,
    "ファイル名": "IMG_1581.JPG",
    "撮影日時": "2026:09:23 07:42:27",
    "標高m": 91.52,
    "種別": "写真"
   }
  },
  {
   "type": "Feature",
   "geometry": {
    "type": "Point",
    "coordinates": [
     137.09485,
     37.46943333,
     85.42
    ]
   },
   "properties": {
    "順番": 75,
    "ファイル名": "IMG_1582.JPG",
    "撮影日時": "2026:09:23 07:43:52",
    "標高m": 85.42,
    "種別": "写真"
   }
  },
  {
   "type": "Feature",
   "geometry": {
    "type": "Point",
    "coordinates": [
     137.09483333,
     37.469375,
     85.13
    ]
   },
   "properties": {
    "順番": 76,
    "ファイル名": "IMG_1583.JPG",
    "撮影日時": "2026:09:23 07:44:00",
    "標高m": 85.13,
    "種別": "写真"
   }
  },
  {
   "type": "Feature",
   "geometry": {
    "type": "Point",
    "coordinates": [
     137.09463611,
     37.46953611,
     80.42
    ]
   },
   "properties": {
    "順番": 77,
    "ファイル名": "IMG_1584.JPG",
    "撮影日時": "2026:09:23 07:44:45",
    "標高m": 80.42,
    "種別": "写真"
   }
  },
  {
   "type": "Feature",
   "geometry": {
    "type": "Point",
    "coordinates": [
     137.09440556,
     37.46950833,
     83.07
    ]
   },
   "properties": {
    "順番": 78,
    "ファイル名": "IMG_1585.JPG",
    "撮影日時": "2026:09:23 07:44:55",
    "標高m": 83.07,
    "種別": "写真"
   }
  },
  {
   "type": "Feature",
   "geometry": {
    "type": "Point",
    "coordinates": [
     137.09748889,
     37.47015,
     105.47
    ]
   },
   "properties": {
    "順番": 79,
    "ファイル名": "IMG_1586.JPG",
    "撮影日時": "2026:09:23 07:49:08",
    "標高m": 105.47,
    "種別": "写真"
   }
  },
  {
   "type": "Feature",
   "geometry": {
    "type": "Point",
    "coordinates": [
     137.09791667,
     37.47015833,
     110.12
    ]
   },
   "properties": {
    "順番": 80,
    "ファイル名": "IMG_1587.JPG",
    "撮影日時": "2026:09:23 07:49:36",
    "標高m": 110.12,
    "種別": "写真"
   }
  },
  {
   "type": "Feature",
   "geometry": {
    "type": "Point",
    "coordinates": [
     137.09802222,
     37.47016111,
     113.14
    ]
   },
   "properties": {
    "順番": 81,
    "ファイル名": "IMG_1588.JPG",
    "撮影日時": "2026:09:23 07:49:44",
    "標高m": 113.14,
    "種別": "写真"
   }
  },
  {
   "type": "Feature",
   "geometry": {
    "type": "Point",
    "coordinates": [
     137.098,
     37.4702,
     114.52
    ]
   },
   "properties": {
    "順番": 82,
    "ファイル名": "IMG_1589.MOV",
    "撮影日時": "2026:09:23 07:49:54",
    "標高m": 114.52,
    "種別": "動画"
   }
  },
  {
   "type": "Feature",
   "geometry": {
    "type": "Point",
    "coordinates": [
     137.0981,
     37.4701,
     114.17
    ]
   },
   "properties": {
    "順番": 83,
    "ファイル名": "IMG_1590.MOV",
    "撮影日時": "2026:09:23 07:50:35",
    "標高m": 114.17,
    "種別": "動画"
   }
  },
  {
   "type": "Feature",
   "geometry": {
    "type": "Point",
    "coordinates": [
     137.097825,
     37.47017222,
     111.21
    ]
   },
   "properties": {
    "順番": 84,
    "ファイル名": "IMG_1591.JPG",
    "撮影日時": "2026:09:23 07:51:49",
    "標高m": 111.21,
    "種別": "写真"
   }
  },
  {
   "type": "Feature",
   "geometry": {
    "type": "Point",
    "coordinates": [
     137.097825,
     37.47016944,
     111.54
    ]
   },
   "properties": {
    "順番": 85,
    "ファイル名": "IMG_1593.JPG",
    "撮影日時": "2026:09:23 07:51:55",
    "標高m": 111.54,
    "種別": "写真"
   }
  },
  {
   "type": "Feature",
   "geometry": {
    "type": "Point",
    "coordinates": [
     137.09783889,
     37.47017222,
     111.66
    ]
   },
   "properties": {
    "順番": 86,
    "ファイル名": "IMG_1594.JPG",
    "撮影日時": "2026:09:23 07:51:57",
    "標高m": 111.66,
    "種別": "写真"
   }
  },
  {
   "type": "Feature",
   "geometry": {
    "type": "Point",
    "coordinates": [
     137.09620556,
     37.46988889,
     96.01
    ]
   },
   "properties": {
    "順番": 87,
    "ファイル名": "IMG_1596.JPG",
    "撮影日時": "2026:09:23 07:54:35",
    "標高m": 96.01,
    "種別": "写真"
   }
  },
  {
   "type": "Feature",
   "geometry": {
    "type": "Point",
    "coordinates": [
     137.09301667,
     37.47283611,
     7.98
    ]
   },
   "properties": {
    "順番": 88,
    "ファイル名": "IMG_1597.JPG",
    "撮影日時": "2026:09:23 07:59:38",
    "標高m": 7.98,
    "種別": "写真"
   }
  },
  {
   "type": "Feature",
   "geometry": {
    "type": "Point",
    "coordinates": [
     137.09217778,
     37.47215556,
     4.9
    ]
   },
   "properties": {
    "順番": 89,
    "ファイル名": "IMG_1598.JPG",
    "撮影日時": "2026:09:23 08:08:39",
    "標高m": 4.9,
    "種別": "写真"
   }
  },
  {
   "type": "Feature",
   "geometry": {
    "type": "Point",
    "coordinates": [
     137.09388611,
     37.47202222,
     10.16
    ]
   },
   "properties": {
    "順番": 90,
    "ファイル名": "IMG_1599.JPG",
    "撮影日時": "2026:09:23 08:08:41",
    "標高m": 10.16,
    "種別": "写真"
   }
  },
  {
   "type": "Feature",
   "geometry": {
    "type": "Point",
    "coordinates": [
     137.09245278,
     37.47108056,
     14.25
    ]
   },
   "properties": {
    "順番": 91,
    "ファイル名": "IMG_1600.JPG",
    "撮影日時": "2026:09:23 08:11:24",
    "標高m": 14.25,
    "種別": "写真"
   }
  },
  {
   "type": "Feature",
   "geometry": {
    "type": "Point",
    "coordinates": [
     137.09297222,
     37.47280556,
     7.98
    ]
   },
   "properties": {
    "順番": 92,
    "ファイル名": "IMG_1601.JPG",
    "撮影日時": "2026:09:23 08:50:54",
    "標高m": 7.98,
    "種別": "写真"
   }
  },
  {
   "type": "Feature",
   "geometry": {
    "type": "LineString",
    "coordinates": [
     [
      137.09399444,
      37.47219444
     ],
     [
      137.094375,
      37.47257222
     ],
     [
      137.09458889,
      37.47247222
     ],
     [
      137.09649722,
      37.47293889
     ],
     [
      137.09649722,
      37.47299444
     ],
     [
      137.0967,
      37.4733
     ],
     [
      137.09690833,
      37.47326389
     ],
     [
      137.09774722,
      37.47343056
     ],
     [
      137.097825,
      37.47342222
     ],
     [
      137.09783889,
      37.47343889
     ],
     [
      137.09821944,
      37.47306389
     ],
     [
      137.09951667,
      37.47354167
     ],
     [
      137.09953333,
      37.47344167
     ],
     [
      137.09945556,
      37.47324444
     ],
     [
      137.09944167,
      37.47323611
     ],
     [
      137.09950278,
      37.47318889
     ],
     [
      137.099625,
      37.47321389
     ],
     [
      137.099625,
      37.47321389
     ],
     [
      137.09959444,
      37.47319722
     ],
     [
      137.09976111,
      37.47329722
     ],
     [
      137.09983889,
      37.47335
     ],
     [
      137.10014444,
      37.47343611
     ],
     [
      137.10014444,
      37.47337778
     ],
     [
      137.10015833,
      37.47327778
     ],
     [
      137.10018889,
      37.47321667
     ],
     [
      137.1002,
      37.4732
     ],
     [
      137.10066111,
      37.47286667
     ],
     [
      137.10083056,
      37.47280833
     ],
     [
      137.10115,
      37.47267222
     ],
     [
      137.10115,
      37.47267222
     ],
     [
      137.10115,
      37.47267222
     ],
     [
      137.10115,
      37.472675
     ],
     [
      137.10115,
      37.47267222
     ],
     [
      137.10141111,
      37.47256944
     ],
     [
      137.10151667,
      37.47250556
     ],
     [
      137.10188333,
      37.472325
     ],
     [
      137.10186667,
      37.47233056
     ],
     [
      137.1012,
      37.4727
     ],
     [
      137.100525,
      37.47282222
     ],
     [
      137.10015833,
      37.47324444
     ],
     [
      137.09996111,
      37.47345556
     ],
     [
      137.09996111,
      37.47344722
     ],
     [
      137.09976111,
      37.47330278
     ],
     [
      137.09976111,
      37.47330278
     ],
     [
      137.09948611,
      37.47319444
     ],
     [
      137.09963889,
      37.47388056
     ],
     [
      137.09873889,
      37.47343056
     ],
     [
      137.09873889,
      37.47342778
     ],
     [
      137.098725,
      37.47343056
     ],
     [
      137.09870833,
      37.47341944
     ],
     [
      137.09648056,
      37.47285
     ],
     [
      137.09648056,
      37.47285
     ],
     [
      137.09646667,
      37.47282222
     ],
     [
      137.0965,
      37.4728
     ],
     [
      137.09599167,
      37.47246389
     ],
     [
      137.09599167,
      37.47246111
     ],
     [
      137.09591667,
      37.47248611
     ],
     [
      137.09587222,
      37.47243611
     ],
     [
      137.09571944,
      37.47229444
     ],
     [
      137.09567222,
      37.47227222
     ],
     [
      137.09565833,
      37.47226389
     ],
     [
      137.09559722,
      37.47223333
     ],
     [
      137.0941,
      37.47056389
     ],
     [
      137.09512222,
      37.47084722
     ],
     [
      137.09512222,
      37.47084444
     ],
     [
      137.09512222,
      37.47084444
     ],
     [
      137.09606944,
      37.46987222
     ],
     [
      137.09606944,
      37.46987222
     ],
     [
      137.09548889,
      37.46986111
     ],
     [
      137.09545833,
      37.46988333
     ],
     [
      137.09535278,
      37.469975
     ],
     [
      137.09526111,
      37.47018056
     ],
     [
      137.09532222,
      37.47021111
     ],
     [
      137.09535278,
      37.47001389
     ],
     [
      137.09485,
      37.46943333
     ],
     [
      137.09483333,
      37.469375
     ],
     [
      137.09463611,
      37.46953611
     ],
     [
      137.09440556,
      37.46950833
     ],
     [
      137.09748889,
      37.47015
     ],
     [
      137.09791667,
      37.47015833
     ],
     [
      137.09802222,
      37.47016111
     ],
     [
      137.098,
      37.4702
     ],
     [
      137.0981,
      37.4701
     ],
     [
      137.097825,
      37.47017222
     ],
     [
      137.097825,
      37.47016944
     ],
     [
      137.09783889,
      37.47017222
     ],
     [
      137.09620556,
      37.46988889
     ],
     [
      137.09301667,
      37.47283611
     ],
     [
      137.09217778,
      37.47215556
     ],
     [
      137.09388611,
      37.47202222
     ],
     [
      137.09245278,
      37.47108056
     ],
     [
      137.09297222,
      37.47280556
     ]
    ]
   },
   "properties": {
    "name": "撮影経路"
   }
  }
 ]
}